start=new Date('2023-01-24T00:00:00.000Z').valueOf();
sats=[{"OBJECT_TYPE":"PAYLOAD","APOAPSIS":"540.616","TLE_LINE2":"2 49768  53.2157 220.7408 0001306  80.6041 279.5099 15.08850749 64559","COUNTRY_CODE":"US","REV_AT_EPOCH":"6455","OBJECT_NAME":"STARLINK-3196","MEAN_MOTION_DDOT":"0.0000000000000","BSTAR":"0.00007884400000","CLASSIFICATION_TYPE":"U","NORAD_CAT_ID":"49768","FILE":"3759168","GP_ID":"223621065","PERIOD":"95.437","REF_FRAME":"TEME","TIME_SYSTEM":"UTC","ECCENTRICITY":"0.00013060","LAUNCH_DATE":"2021-12-02","PERIAPSIS":"538.809","CENTER_NAME":"EARTH","RCS_SIZE":"LARGE","DECAY_DATE":null,"SITE":"AFETR","ARG_OF_PERICENTER":"80.6041","EPOCH":"2023-01-23T19:24:20.359872","MEAN_ELEMENT_THEORY":"SGP4","MEAN_MOTION_DOT":"0.00000967","EPHEMERIS_TYPE":"0","SEMIMAJOR_AXIS":"6917.848","ELEMENT_SET_NO":"999","TLE_LINE1":"1 49768U 21115AW  23023.80856898  .00000967  00000-0  78844-4 0  9993","MEAN_ANOMALY":"279.5099","OBJECT_ID":"2021-115AW","RA_OF_ASC_NODE":"220.7408","MEAN_MOTION":"15.08850749","INCLINATION":"53.2157"},{"REV_AT_EPOCH":"6455","COUNTRY_CODE":"US","OBJECT_TYPE":"PAYLOAD","APOAPSIS":"540.533","TLE_LINE2":"2 49769  53.2157 220.7608 0001152  77.2708 282.8413 15.08843118 64552","OBJECT_NAME":"STARLINK-3208","BSTAR":"0.00006297000000","CLASSIFICATION_TYPE":"U","FILE":"3759158","NORAD_CAT_ID":"49769","MEAN_MOTION_DDOT":"0.0000000000000","REF_FRAME":"TEME","TIME_SYSTEM":"UTC","GP_ID":"223620993","PERIOD":"95.437","ECCENTRICITY":"0.00011520","LAUNCH_DATE":"2021-12-02","PERIAPSIS":"538.939","CENTER_NAME":"EARTH","ARG_OF_PERICENTER":"77.2708","EPOCH":"2023-01-23T19:19:02.752608","SITE":"AFETR","DECAY_DATE":null,"RCS_SIZE":"LARGE","MEAN_MOTION_DOT":"0.00000715","SEMIMAJOR_AXIS":"6917.871","ELEMENT_SET_NO":"999","EPHEMERIS_TYPE":"0","TLE_LINE1":"1 49769U 21115AX  23023.80489297  .00000715  00000-0  62970-4 0  9993","MEAN_ELEMENT_THEORY":"SGP4","OBJECT_ID":"2021-115AX","RA_OF_ASC_NODE":"220.7608","MEAN_MOTION":"15.08843118","INCLINATION":"53.2157","MEAN_ANOMALY":"282.8413"},{"LAUNCH_DATE":"2021-12-02","PERIAPSIS":"538.421","CENTER_NAME":"EARTH","ECCENTRICITY":"0.00019100","RCS_SIZE":"LARGE","DECAY_DATE":null,"SITE":"AFETR","EPOCH":"2023-01-23T13:08:06.535104","ARG_OF_PERICENTER":"85.2260","MEAN_ELEMENT_THEORY":"SGP4","TLE_LINE1":"1 49770U 21115AY  23023.54729786  .00005340  00000-0  35335-3 0  9999","MEAN_MOTION_DOT":"0.00005340","SEMIMAJOR_AXIS":"6917.877","ELEMENT_SET_NO":"999","EPHEMERIS_TYPE":"0","MEAN_ANOMALY":"274.8950","MEAN_MOTION":"15.08841143","INCLINATION":"53.2131","OBJECT_ID":"2021-115AY","RA_OF_ASC_NODE":"221.9141","TLE_LINE2":"2 49770  53.2131 221.9141 0001910  85.2260 274.8950 15.08841143 64514","OBJECT_TYPE":"PAYLOAD","APOAPSIS":"541.063","COUNTRY_CODE":"US","REV_AT_EPOCH":"6451","OBJECT_NAME":"STARLINK-3191","MEAN_MOTION_DDOT":"0.0000000000000","NORAD_CAT_ID":"49770","FILE":"3758817","BSTAR":"0.00035335000000","CLASSIFICATION_TYPE":"U","PERIOD":"95.437","GP_ID":"223613893","TIME_SYSTEM":"UTC","REF_FRAME":"TEME"},{"DECAY_DATE":null,"RCS_SIZE":"LARGE","SITE":"AFETR","ARG_OF_PERICENTER":"86.7964","EPOCH":"2023-01-23T19:34:56.438400","ECCENTRICITY":"0.00014360","LAUNCH_DATE":"2021-12-02","PERIAPSIS":"538.742","CENTER_NAME":"EARTH","MEAN_ANOMALY":"273.3193","RA_OF_ASC_NODE":"220.6986","OBJECT_ID":"2021-115AZ","MEAN_MOTION":"15.08843404","INCLINATION":"53.2162","MEAN_ELEMENT_THEORY":"SGP4","MEAN_MOTION_DOT":"0.00000779","EPHEMERIS_TYPE":"0","SEMIMAJOR_AXIS":"6917.870","ELEMENT_SET_NO":"999","TLE_LINE1":"1 49771U 21115AZ  23023.81593100  .00000779  00000-0  67036-4 0  9994","OBJECT_NAME":"STARLINK-3201","OBJECT_TYPE":"PAYLOAD","APOAPSIS":"540.728","TLE_LINE2":"2 49771  53.2162 220.6986 0001436  86.7964 273.3193 15.08843404 64551","COUNTRY_CODE":"US","REV_AT_EPOCH":"6455","GP_ID":"223621069","PERIOD":"95.437","TIME_SYSTEM":"UTC","REF_FRAME":"TEME","MEAN_MOTION_DDOT":"0.0000000000000","BSTAR":"0.00006703600000","CLASSIFICATION_TYPE":"U","NORAD_CAT_ID":"49771","FILE":"3759168"},{"ECCENTRICITY":"0.00019800","CENTER_NAME":"EARTH","LAUNCH_DATE":"2021-12-18","PERIAPSIS":"538.382","ARG_OF_PERICENTER":"79.6817","EPOCH":"2023-01-23T13:37:19.106400","DECAY_DATE":null,"SITE":"AFWTR","RCS_SIZE":"LARGE","SEMIMAJOR_AXIS":"6917.886","ELEMENT_SET_NO":"999","EPHEMERIS_TYPE":"0","MEAN_MOTION_DOT":"0.00019661","TLE_LINE1":"1 50156U 21125A   23023.56758225  .00019661  00000-0  12500-2 0  9991","MEAN_ELEMENT_THEORY":"SGP4","OBJECT_ID":"2021-125A","RA_OF_ASC_NODE":"331.8291","INCLINATION":"53.2146","MEAN_MOTION":"15.08838012","MEAN_ANOMALY":"280.4398","REV_AT_EPOCH":"6384","COUNTRY_CODE":"US","APOAPSIS":"541.121","OBJECT_TYPE":"PAYLOAD","TLE_LINE2":"2 50156  53.2146 331.8291 0001980  79.6817 280.4398 15.08838012 63844","OBJECT_NAME":"STARLINK-3317","CLASSIFICATION_TYPE":"U","BSTAR":"0.00125000000000","FILE":"3758824","NORAD_CAT_ID":"50156","MEAN_MOTION_DDOT":"0.0000000000000","TIME_SYSTEM":"UTC","REF_FRAME":"TEME","GP_ID":"223613656","PERIOD":"95.438"},{"MEAN_ANOMALY":"282.0939","INCLINATION":"53.2168","MEAN_MOTION":"15.08857433","OBJECT_ID":"2021-125B","RA_OF_ASC_NODE":"343.2018","MEAN_ELEMENT_THEORY":"SGP4","TLE_LINE1":"1 50157U 21125B   23023.26025216  .00019474  00000-0  12377-2 0  9990","ELEMENT_SET_NO":"999","SEMIMAJOR_AXIS":"6917.827","EPHEMERIS_TYPE":"0","MEAN_MOTION_DOT":"0.00019474","SITE":"AFWTR","DECAY_DATE":null,"RCS_SIZE":"LARGE","EPOCH":"2023-01-23T06:14:45.786624","ARG_OF_PERICENTER":"78.0216","CENTER_NAME":"EARTH","PERIAPSIS":"538.689","LAUNCH_DATE":"2021-12-18","ECCENTRICITY":"0.00014500","PERIOD":"95.436","GP_ID":"223610163","TIME_SYSTEM":"UTC","REF_FRAME":"TEME","MEAN_MOTION_DDOT":"0.0000000000000","FILE":"3758673","NORAD_CAT_ID":"50157","CLASSIFICATION_TYPE":"U","BSTAR":"0.00123770000000","OBJECT_NAME":"STARLINK-3313","TLE_LINE2":"2 50157  53.2168 343.2018 0001450  78.0216 282.0939 15.08857433 61059","APOAPSIS":"540.695","OBJECT_TYPE":"PAYLOAD","COUNTRY_CODE":"US","REV_AT_EPOCH":"6105"},{"OBJECT_NAME":"STARLINK-3309","COUNTRY_CODE":"US","REV_AT_EPOCH":"6110","TLE_LINE2":"2 50158  53.2136 341.7715 0001230  82.3236 277.7896 15.08828750 61107","OBJECT_TYPE":"PAYLOAD","APOAPSIS":"540.631","TIME_SYSTEM":"UTC","REF_FRAME":"TEME","PERIOD":"95.438","GP_ID":"223617308","FILE":"3758997","NORAD_CAT_ID":"50158","BSTAR":"0.00041840000000","CLASSIFICATION_TYPE":"U","MEAN_MOTION_DDOT":"0.0000000000000","EPOCH":"2023-01-23T13:55:48.623232","ARG_OF_PERICENTER":"82.3236","RCS_SIZE":"LARGE","DECAY_DATE":null,"SITE":"AFWTR","LAUNCH_DATE":"2021-12-18","PERIAPSIS":"538.929","CENTER_NAME":"EARTH","ECCENTRICITY":"0.00012300","MEAN_MOTION":"15.08828750","INCLINATION":"53.2136","OBJECT_ID":"2021-125C","RA_OF_ASC_NODE":"341.7715","MEAN_ANOMALY":"277.7896","TLE_LINE1":"1 50158U 21125C   23023.58042388  .00006375  00000-0  41840-3 0  9999","MEAN_MOTION_DOT":"0.00006375","ELEMENT_SET_NO":"999","SEMIMAJOR_AXIS":"6917.915","EPHEMERIS_TYPE":"0","MEAN_ELEMENT_THEORY":"SGP4"},{"PERIOD":"95.438","GP_ID":"223594816","REF_FRAME":"TEME","TIME_SYSTEM":"UTC","MEAN_MOTION_DDOT":"0.0000000000000","NORAD_CAT_ID":"50159","FILE":"3757919","CLASSIFICATION_TYPE":"U","BSTAR":"-0.00002754800000","OBJECT_NAME":"STARLINK-3297","TLE_LINE2":"2 50159  53.2185 346.2318 0001716  87.7919 272.3270 15.08835326 60492","APOAPSIS":"540.947","OBJECT_TYPE":"PAYLOAD","COUNTRY_CODE":"US","REV_AT_EPOCH":"6049","MEAN_ANOMALY":"272.3270","INCLINATION":"53.2185","MEAN_MOTION":"15.08835326","RA_OF_ASC_NODE":"346.2318","OBJECT_ID":"2021-125D","MEAN_ELEMENT_THEORY":"SGP4","TLE_LINE1":"1 50159U 21125D   23022.58313363 -.00000726  00000-0 -27548-4 0  9999","SEMIMAJOR_AXIS":"6917.895","EPHEMERIS_TYPE":"0","ELEMENT_SET_NO":"999","MEAN_MOTION_DOT":"-0.00000726","DECAY_DATE":null,"SITE":"AFWTR","RCS_SIZE":"LARGE","EPOCH":"2023-01-22T13:59:42.745632","ARG_OF_PERICENTER":"87.7919","CENTER_NAME":"EARTH","PERIAPSIS":"538.573","LAUNCH_DATE":"2021-12-18","ECCENTRICITY":"0.00017160"},{"MEAN_MOTION":"15.08831220","INCLINATION":"53.2173","RA_OF_ASC_NODE":"341.7421","OBJECT_ID":"2021-125E","MEAN_ANOMALY":"287.0514","TLE_LINE1":"1 50160U 21125E   23023.58410373  .00015307  00000-0  97800-3 0  9997","MEAN_MOTION_DOT":"0.00015307","ELEMENT_SET_NO":"999","SEMIMAJOR_AXIS":"6917.907","EPHEMERIS_TYPE":"0","MEAN_ELEMENT_THEORY":"SGP4","EPOCH":"2023-01-23T14:01:06.562272","ARG_OF_PERICENTER":"73.0637","RCS_SIZE":"LARGE","DECAY_DATE":null,"SITE":"AFWTR","PERIAPSIS":"538.767","LAUNCH_DATE":"2021-12-18","CENTER_NAME":"EARTH","ECCENTRICITY":"0.00014530","REF_FRAME":"TEME","TIME_SYSTEM":"UTC","PERIOD":"95.438","GP_ID":"223617159","NORAD_CAT_ID":"50160","FILE":"3759017","BSTAR":"0.00097800000000","CLASSIFICATION_TYPE":"U","MEAN_MOTION_DDOT":"0.0000000000000","OBJECT_NAME":"STARLINK-3288","REV_AT_EPOCH":"6370","COUNTRY_CODE":"US","TLE_LINE2":"2 50160  53.2173 341.7421 0001453  73.0637 287.0514 15.08831220 63709","OBJECT_TYPE":"PAYLOAD","APOAPSIS":"540.777"},{"CENTER_NAME":"EARTH","LAUNCH_DATE":"2021-12-18","PERIAPSIS":"538.825","ECCENTRICITY":"0.00013930","SITE":"AFWTR","DECAY_DATE":null,"RCS_SIZE":"LARGE","EPOCH":"2023-01-23T06:09:28.199232","ARG_OF_PERICENTER":"74.7019","MEAN_ELEMENT_THEORY":"SGP4","TLE_LINE1":"1 50161U 21125F   23023.25657638  .00033247  00000-0  20980-2 0  9996","EPHEMERIS_TYPE":"0","SEMIMAJOR_AXIS":"6917.923","ELEMENT_SET_NO":"999","MEAN_MOTION_DOT":"0.00033247","MEAN_ANOMALY":"285.4127","INCLINATION":"53.2171","MEAN_MOTION":"15.08825941","OBJECT_ID":"2021-125F","RA_OF_ASC_NODE":"343.2170","TLE_LINE2":"2 50161  53.2171 343.2170 0001393  74.7019 285.4127 15.08825941 63650","APOAPSIS":"540.752","OBJECT_TYPE":"PAYLOAD","COUNTRY_CODE":"US","REV_AT_EPOCH":"6365","OBJECT_NAME":"STARLINK-3304","MEAN_MOTION_DDOT":"0.0000000000000","NORAD_CAT_ID":"50161","FILE":"3758581","CLASSIFICATION_TYPE":"U","BSTAR":"0.00209800000000","PERIOD":"95.438","GP_ID":"223608037","REF_FRAME":"TEME","TIME_SYSTEM":"UTC"}];
